0 SOHLA-1 (MAIDO-1)
1 33496U 09002E   13282.11653443  .00000442  00000-0  81408-4 0  1671
2 33496 098.1465 037.9171 0005520 327.8693 079.1853 14.70386111252619
0 SOHLA-1 (MAIDO-1)
1 33496U 09002E   13283.56107179  .00000383  00000-0  71676-4 0  1682
2 33496 098.1468 039.3599 0005440 322.4633 166.5014 14.70387968252822
0 SOHLA-1 (MAIDO-1)
1 33496U 09002E   13286.14562736  .00000383  00000-0  71554-4 0  1701
2 33496 098.1474 041.9418 0005326 312.6958 169.1403 14.70389748253204
0 SOHLA-1 (MAIDO-1)
1 33496U 09002E   13287.28926861  .00000443  00000-0  81530-4 0  1713
2 33496 098.1477 043.0843 0005279 308.2303 103.7288 14.70390580253373
0 SOHLA-1 (MAIDO-1)
1 33496U 09002E   13288.44856521  .00000643  00000-0  11463-3 0  1727
2 33496 098.1479 044.2425 0005298 303.6318 121.2758 14.70392472253548
0 SOHLA-1 (MAIDO-1)
1 33496U 09002E   13289.82108736  .00000537  00000-0  97109-4 0  1733
2 33496 098.1480 045.6138 0005248 298.2474 187.6303 14.70394887253749
0 SOHLA-1 (MAIDO-1)
1 33496U 09002E   13291.18064013  .00000563  00000-0  10138-3 0  1740
2 33496 098.1480 046.9723 0005242 292.8488 185.4007 14.70396354253942
0 SOHLA-1 (MAIDO-1)
1 33496U 09002E   13292.39687131  .00000629  00000-0  11223-3 0  1756
2 33496 098.1479 048.1875 0005238 288.0678 144.3518 14.70397937254125
0 SOHLA-1 (MAIDO-1)
1 33496U 09002E   13293.41170683  .00000686  00000-0  12165-3 0  1769
2 33496 098.1479 049.2015 0005229 284.1058 117.0558 14.70399509254276
0 SOHLA-1 (MAIDO-1)
1 33496U 09002E   13294.79538230  .00000706  00000-0  12494-3 0  1776
2 33496 098.1479 050.5840 0005250 278.5678 242.6026 14.70401424254473
0 SOHLA-1 (MAIDO-1)
1 33496U 09002E   13295.87509316  .00000680  00000-0  12063-3 0  1783
2 33496 098.1479 051.6628 0005274 274.1566 198.9749 14.70402786254638
